satname,norad_id,inclination_deg,eccentricity,mean_motion_rev_per_day,perigee_km,apogee_km,l1,l2
STARLINK-1168,45072,53.0507,0.0002075,15.06428164,545.6882487645335,548.562232594415,1 45072U 20006AE  25306.47368729  .00006478  00000+0  45304-3 0  9991,2 45072  53.0507 117.7152 0002075  77.4856 282.6365 15.06428164317566
STARLINK-1172,45074,53.054,0.0001509,15.06401325,546.1624625224913,548.2525314916866,1 45074U 20006AG  25306.48475294 -.00000658  00000+0 -25292-4 0  9991,2 45074  53.0540 117.6618 0001509 108.1095 252.0058 15.06401325317569
STARLINK-1153,45080,53.0523,0.0001479,15.06399293,546.1894654201014,548.2379841644952,1 45080U 20006AN  25307.72323154  .00003669  00000+0  26508-3 0  9996,2 45080  53.0523 112.1027 0001479  89.4344 270.6814 15.06399293317752
STARLINK-1151,45081,53.0529,6.29e-05,15.06424849,546.699800745093,547.5710000130612,1 45081U 20006AP  25306.18250904  .00007180  00000+0  50009-3 0  9993,2 45081  53.0529 119.0926 0000629  73.1546 286.9512 15.06424849317529
STARLINK-1190,45083,53.0387,0.0003947,15.9229554,293.22651770101584,298.4949715206112,1 45083U 20006AR  25307.91670139  .00306465  46653-4  89701-3 0  9991,2 45083  53.0387  59.8745 0003947 299.0300  63.0102 15.92295540  5966
STARLINK-1185,45087,53.0535,0.0001271,15.06390272,546.3611574264278,548.1215886088494,1 45087U 20006AV  25307.81722543  .00000722  00000+0  67360-4 0  9997,2 45087  53.0535  91.6791 0001271  87.5881 272.5253 15.06390272318056
STARLINK-1183,45088,53.0536,0.0001319,15.06389765,546.3294693044181,548.1563845291375,1 45088U 20006AW  25307.77299382  .00000217  00000+0  33493-4 0  9992,2 45088  53.0536  91.8799 0001319  91.2688 268.8452 15.06389765318041
STARLINK-1142,45093,53.0344,0.0005072,15.62600491,376.7207392282162,383.57634408167087,1 45093U 20006BB  25307.91670139  .00143054  00000+0  15493-2 0  9992,2 45093  53.0344  23.1455 0005072   2.3146  11.4278 15.62600491  5778
STARLINK-1152,45096,53.051,0.0006395,15.24132095,488.99847881853384,497.7871654610508,1 45096U 20006BE  25306.10039479  .00025297  00000+0  10366-2 0  9993,2 45096  53.0510  81.4036 0006395 177.7625 182.3402 15.24132095318048
STARLINK-1184,45098,53.0549,0.0001469,15.06395512,546.2079773222513,548.2426487698249,1 45098U 20006BG  25306.46079600 -.00000209  00000+0  48836-5 0  9997,2 45098  53.0549  97.7705 0001469 102.1128 258.0025 15.06395512317846
STARLINK-1193,45100,53.052,0.0001509,15.06400844,546.1639364939892,548.2540059080966,1 45100U 20006BJ  25307.78405086 -.00001242  00000+0 -64490-4 0  9990,2 45100  53.0520  91.8279 0001509  93.5701 266.5461 15.06400844318041
STARLINK-1143,45179,53.0516,0.0008897,15.40940022,437.26463629818227,449.4027612595901,1 45179U 20012B   25306.46327049  .00051687  00000+0  12368-2 0  9990,2 45179  53.0516 220.9743 0008897  61.5057 298.6842 15.40940022316186
STARLINK-1202,45183,53.0538,0.0001575,15.06421998,546.0534062777697,548.2348698362584,1 45183U 20012F   25307.58133457  .00013235  00000+0  90517-3 0  9997,2 45183  53.0538 252.7430 0001575  89.5941 270.5228 15.06421998315835
STARLINK-1216,45185,53.0539,0.0001318,15.06411643,546.2631178132106,548.0886302868103,1 45185U 20012H   25307.57395920  .00007920  00000+0  54981-3 0  9992,2 45185  53.0539 252.7737 0001318  86.8813 273.2327 15.06411643315770
STARLINK-1225,45187,53.0532,0.0001356,15.06416137,546.2230302408625,548.1011713569978,1 45187U 20012K   25307.59238975  .00010270  00000+0  70706-3 0  9997,2 45187  53.0532 252.6913 0001356  87.1259 272.9886 15.06416137315825
STARLINK-1230,45189,53.0533,0.0001409,15.06385134,546.2813324303061,548.2329084934527,1 45189U 20012M   25306.13644594  .00000327  00000+0  40852-4 0  9998,2 45189  53.0533 259.2327 0001409  77.5467 282.5680 15.06385134312832
STARLINK-1234,45190,53.0545,0.0003124,15.36399759,454.63075914779165,458.90120653147096,1 45190U 20012N   25307.73155308  .00065601  00000+0  18159-2 0  9996,2 45190  53.0545 208.3915 0003124 112.7884 247.3449 15.36399759316361
STARLINK-1269,45197,53.0534,0.0001415,15.06395431,546.2456224981916,548.2055001030394,1 45197U 20012V   25306.14750442  .00003278  00000+0  23887-3 0  9994,2 45197  53.0534 259.1798 0001415  99.2540 260.8609 15.06395431315589
STARLINK-1154,45198,53.0533,0.0001417,15.06432142,546.1317411571818,548.0943570210939,1 45198U 20012W   25307.53157039  .00016278  00000+0  11082-2 0  9999,2 45198  53.0533 232.9648 0001417  92.4252 267.6899 15.06432142316048
STARLINK-1199,45201,53.0543,0.0001419,15.06432301,546.1298688815923,548.0952547072293,1 45201U 20012Z   25307.80800154  .00012163  00000+0  83328-3 0  9999,2 45201  53.0543 231.7236 0001419  99.6439 260.4710 15.06432301316143
STARLINK-1209,45206,53.0548,0.0001993,15.30424226,473.1799130904392,475.9113923958221,1 45206U 20012AE  25307.80296478  .00054587  00000+0  18288-2 0  9990,2 45206  53.0548 208.7973 0001993 111.4350 248.6862 15.30424226315517
STARLINK-1210,45207,53.0237,0.0012641,15.57164944,387.3036786920147,404.42971483817564,1 45207U 20012AF  25307.91670139  .00113637  00000+0  15166-2 0  9997,2 45207  53.0237 169.8397 0012641  77.4080 341.4965 15.57164944  5927
STARLINK-1231,45212,53.051,0.0006946,15.12511754,523.7456362598114,533.3403961383165,1 45212U 20012AL  25307.81023576  .00018586  00000+0  10688-2 0  9990,2 45212  53.0510 229.9103 0006946  57.9800 302.1866 15.12511754316121
STARLINK-1271,45217,53.0542,0.0001713,15.06385421,546.0699209717295,548.4425606960403,1 45217U 20012AR  25306.13459657 -.00003095  00000+0 -18902-3 0  9991,2 45217  53.0542 239.2356 0001713  85.2952 274.8233 15.06385421315893
STARLINK-1191,45222,53.0536,0.0001422,15.06394814,546.2426655018344,548.2122391520761,1 45222U 20012AW  25306.47556557  .00014046  00000+0  96012-3 0  9995,2 45222  53.0536 217.7048 0001422  87.9147 272.2005 15.06394814316226
STARLINK-1212,45223,53.0536,0.000149,15.06392264,546.2033872976599,548.2671482334526,1 45223U 20012AX  25306.02964217  .00010810  00000+0  74367-3 0  9997,2 45223  53.0536 220.3628 0001490  78.9589 281.1567 15.06392264316157
STARLINK-1215,45225,53.0549,0.0001371,15.06376699,546.3334979895517,548.2324481461665,1 45225U 20012AZ  25305.98530826  .00011944  00000+0  81987-3 0  9993,2 45225  53.0549 219.9050 0001371  97.7204 262.3941 15.06376699316103
STARLINK-1221,45227,53.0654,0.0002356,15.36825555,453.89345746958406,457.113468855825,1 45227U 20012BB  25307.83157921  .00015863  00000+0  44403-3 0  9998,2 45227  53.0654 143.7385 0002356   4.2639 355.8383 15.36825555317322
STARLINK-1222,45228,53.0537,0.0001361,15.06395203,546.2837181516988,548.1688020310958,1 45228U 20012BC  25306.48293678  .00013244  00000+0  90646-3 0  9990,2 45228  53.0537 217.6719 0001361  90.9249 269.1896 15.06395203316110
STARLINK-1226,45229,53.0538,0.0001106,15.06386178,546.487972465633,548.0198689372919,1 45229U 20012BD  25306.04796708  .00012654  00000+0  86720-3 0  9997,2 45229  53.0538 219.6232 0001106  96.8685 263.2430 15.06386178316053
STARLINK-1227,45230,53.0536,0.0001406,15.06423121,546.1670022655599,548.1143903537622,1 45230U 20012BE  25307.76931274  .00009150  00000+0  63197-3 0  9998,2 45230  53.0536 211.8962 0001406 108.9201 251.1941 15.06423121316434
STARLINK-1246,45235,53.0545,0.0001554,15.06404775,546.1207263979813,548.2731201813394,1 45235U 20012BK  25307.58501225  .00003677  00000+0  26561-3 0  9994,2 45235  53.0545 252.7232 0001554  99.1361 260.9804 15.06404775315850
STARLINK-1270,45237,53.0541,0.0001434,15.06394786,546.2344408686467,548.2206354181862,1 45237U 20012BM  25306.46081545  .00007874  00000+0  54697-3 0  9994,2 45237  53.0541 217.7712 0001434 109.8985 250.2158 15.06394786316226
STARLINK-1279,45360,53.0523,0.0002653,15.34414967,460.8438923766189,464.473618604482,1 45360U 20019A   25307.64392051  .00081702  00000+0  24016-2 0  9999,2 45360  53.0523 339.2717 0002653  24.8793 335.2336 15.34414967311182
STARLINK-1301,45361,53.0522,0.0002426,15.36883476,453.6739682219795,456.98956726808865,1 45361U 20019B   25307.66711477  .00083777  00000+0  22749-2 0  9994,2 45361  53.0522 348.8365 0002426  26.3205 333.7920 15.36883476311066
STARLINK-1306,45362,53.0465,0.0006683,15.70221004,353.76291180067255,362.76678651225484,1 45362U 20019C   25307.91670139  .00242657  00000+0  19071-2 0  9990,2 45362  53.0465 337.0093 0006683 318.8782 142.2394 15.70221004  5956
STARLINK-1262,45366,53.0548,0.0001321,15.063858,546.3402349413127,548.1699235286469,1 45366U 20019G   25306.50503440  .00007125  00000+0  49693-3 0  9991,2 45366  53.0548  17.5693 0001321  78.5703 281.5434 15.06385800310567
STARLINK-1273,45367,53.0543,0.0001238,15.0638778,546.3916479433292,548.1063735195858,1 45367U 20019H   25306.46080176  .00002473  00000+0  18493-3 0  9998,2 45367  53.0543  17.7696 0001238  84.3042 275.8088 15.06387780310555
STARLINK-1276,45368,53.0548,0.0001312,15.06394586,546.3195432103885,548.1367590260425,1 45368U 20019J   25306.49766044  .00007876  00000+0  54709-3 0  9999,2 45368  53.0548  17.6066 0001312  91.1952 268.9188 15.06394586310567
STARLINK-1277,45369,53.0572,0.0001681,15.06395466,546.0613006015928,548.3896074586382,1 45369U 20019K   25306.49035970  .00000761  00000+0  69975-4 0  9995,2 45369  53.0572  18.2665 0001681  94.7871 265.3310 15.06395466310550
STARLINK-1281,45370,53.0565,0.0001249,15.06405056,546.3310879703631,548.0610361692688,1 45370U 20019L   25306.48659682 -.00002473  00000+0 -14715-3 0  9993,2 45370  53.0565  17.6575 0001249  79.8617 280.2513 15.06405056310568
STARLINK-1300,45374,53.055,0.0001534,15.06393603,546.1688124149814,548.2935153676635,1 45374U 20019Q   25306.50871735  .00009804  00000+0  67629-3 0  9990,2 45374  53.0550  17.5544 0001534  99.3487 260.7676 15.06393603310567
STARLINK-1302,45375,53.0546,0.0001398,15.06389115,546.2767507041463,548.2130874887253,1 45375U 20019R   25306.45711786  .00012710  00000+0  87090-3 0  9998,2 45375  53.0546  17.7878 0001398  72.0572 288.0569 15.06389115310552
